<kml xmlns="http://www.opengis.net/kml/2.2"><Document>
<Placemark>
<ExtendedData>
  <Data name="title"><value>Regentonne-Regentonnen mit Fuß</value></Data>
  <Data name="location"><value>15711 Königs Wusterhausen</value></Data>
  <Data name="price"><value>30 €</value></Data>
  <Data name="href"><value>https://www.kleinanzeigen.de/s-anzeige/regentonne-regentonnen-mit-fuss/2484233637-89-19878</value></Data></ExtendedData>
  <Point><coordinates>13.6148679,52.2869576</coordinates></Point></Placemark>
<Placemark>
<ExtendedData>
  <Data name="title"><value>Regentonne. Regenfass.Reisetasche.</value></Data>
  <Data name="location"><value>80939 Schwabing-​Freimann</value></Data>
  <Data name="price"><value>20 € VB</value></Data>
  <Data name="href"><value>https://www.kleinanzeigen.de/s-anzeige/regentonne-regenfass-reisetasche-/2462905441-87-6450</value></Data></ExtendedData>
  <Point><coordinates>11.60858258301819,48.1892784</coordinates></Point></Placemark>
<Placemark>
<ExtendedData>
  <Data name="title"><value>Regenfas   Plastikfass Regentonne.  Blumenfass</value></Data>
  <Data name="location"><value>80939 Milbertshofen -​ Am Hart</value></Data>
  <Data name="price"><value>20 € VB</value></Data>
  <Data name="href"><value>https://www.kleinanzeigen.de/s-anzeige/regenfas-plastikfass-regentonne-blumenfass/2462816474-87-16357</value></Data></ExtendedData>
  <Point><coordinates>11.5750432,48.1823848</coordinates></Point></Placemark>
<Placemark>
<ExtendedData>
  <Data name="title"><value>Weinfass Eichenfass Wasserfass Regenfass Regentonne Wassertonne</value></Data>
  <Data name="location"><value>83533 Edling</value></Data>
  <Data name="price"><value>200 €</value></Data>
  <Data name="href"><value>https://www.kleinanzeigen.de/s-anzeige/weinfass-eichenfass-wasserfass-regenfass-regentonne-wassertonne/2460093731-87-6058</value></Data></ExtendedData>
  <Point><coordinates>12.1589951,48.0575364</coordinates></Point></Placemark>
<Placemark>
<ExtendedData>
  <Data name="title"><value>Regentonnen Untersatz</value></Data>
  <Data name="location"><value>83059 Kolbermoor</value></Data>
  <Data name="price"><value>8 € VB</value></Data>
  <Data name="href"><value>https://www.kleinanzeigen.de/s-anzeige/regentonnen-untersatz/2459932975-89-6257</value></Data></ExtendedData>
  <Point><coordinates>12.0643394,47.8519749</coordinates></Point></Placemark>
<Placemark>
<ExtendedData>
  <Data name="title"><value>Deckel für Regentonne 300 L</value></Data>
  <Data name="location"><value>86551 Aichach</value></Data>
  <Data name="price"><value>7 €</value></Data>
  <Data name="href"><value>https://www.kleinanzeigen.de/s-anzeige/deckel-fuer-regentonne-300-l/2459367872-87-7194</value></Data></ExtendedData>
  <Point><coordinates>11.1130697,48.4414141</coordinates></Point></Placemark>
<Placemark>
<ExtendedData>
  <Data name="title"><value>Regentonne, Plastikfass</value></Data>
  <Data name="location"><value>82211 Herrsching</value></Data>
  <Data name="price"><value>VB</value></Data>
  <Data name="href"><value>https://www.kleinanzeigen.de/s-anzeige/regentonne-plastikfass/2456670007-87-5520</value></Data></ExtendedData>
  <Point><coordinates>11.1691277,47.9949135</coordinates></Point></Placemark>
<Placemark>
<ExtendedData>
  <Data name="title"><value>Aquastop für Regentonne</value></Data>
  <Data name="location"><value>86316 Friedberg</value></Data>
  <Data name="price"><value>5 €</value></Data>
  <Data name="href"><value>https://www.kleinanzeigen.de/s-anzeige/aquastop-fuer-regentonne/2454903107-89-7138</value></Data></ExtendedData>
  <Point><coordinates>10.9810059,48.35190335</coordinates></Point></Placemark>
<Placemark>
<ExtendedData>
  <Data name="title"><value>Suche 225 l Weinfass als Regentonne</value></Data>
  <Data name="location"><value>82515 Wolfratshausen</value></Data>
  <Data name="price"><value>VB</value></Data>
  <Data name="href"><value>https://www.kleinanzeigen.de/s-anzeige/suche-225-l-weinfass-als-regentonne/2454664045-89-5540</value></Data></ExtendedData>
  <Point><coordinates>11.4187319,47.9119508</coordinates></Point></Placemark>
<Placemark>
<ExtendedData>
  <Data name="title"><value>Plastikfass, Regentonne ca. 200L</value></Data>
  <Data name="location"><value>85221 Dachau</value></Data>
  <Data name="price"><value>30 €</value></Data>
  <Data name="href"><value>https://www.kleinanzeigen.de/s-anzeige/plastikfass-regentonne-ca-200l/2454023983-87-5977</value></Data></ExtendedData>
  <Point><coordinates>11.4432833,48.2471685</coordinates></Point></Placemark>
<Placemark>
<ExtendedData>
  <Data name="title"><value>Wasserfass , Regentonne 1000l</value></Data>
  <Data name="location"><value>86199 Augsburg</value></Data>
  <Data name="price"><value>100 € VB</value></Data>
  <Data name="href"><value>https://www.kleinanzeigen.de/s-anzeige/wasserfass-regentonne-1000l/2453823980-87-7532</value></Data></ExtendedData>
  <Point><coordinates>10.9141014,48.355774</coordinates></Point></Placemark>
<Placemark>
<ExtendedData>
  <Data name="title"><value>Weinfass Eichenfass Wasserfass Regenfass Regentonne Wassertonne</value></Data>
  <Data name="location"><value>83533 Edling</value></Data>
  <Data name="price"><value>200 €</value></Data>
  <Data name="href"><value>https://www.kleinanzeigen.de/s-anzeige/weinfass-eichenfass-wasserfass-regenfass-regentonne-wassertonne/2451704319-87-6058</value></Data></ExtendedData>
  <Point><coordinates>12.1589951,48.0575364</coordinates></Point></Placemark>
<Placemark>
<ExtendedData>
  <Data name="title"><value>Regentonne Garantia Lanzarote 300 l</value></Data>
  <Data name="location"><value>83735 Bayrischzell</value></Data>
  <Data name="price"><value>20 € VB</value></Data>
  <Data name="href"><value>https://www.kleinanzeigen.de/s-anzeige/regentonne-garantia-lanzarote-300-l/2450258433-87-6254</value></Data></ExtendedData>
  <Point><coordinates>12.011193,47.6746068</coordinates></Point></Placemark>
<Placemark>
<ExtendedData>
  <Data name="title"><value>Ausdehnungsgefäß defekt Grill Räucherofen Feuerschale Regentonne</value></Data>
  <Data name="location"><value>85256 Vierkirchen</value></Data>
  <Data name="price"><value>130 € VB</value></Data>
  <Data name="href"><value>https://www.kleinanzeigen.de/s-anzeige/ausdehnungsgefaess-defekt-grill-raeucherofen-feuerschale-regentonne/2449333524-84-5981</value></Data></ExtendedData>
  <Point><coordinates>11.4599995,48.365568</coordinates></Point></Placemark>
<Placemark>
<ExtendedData>
  <Data name="title"><value>Regentonne</value></Data>
  <Data name="location"><value>85419 Mauern</value></Data>
  <Data name="price"><value>Zu verschenken</value></Data>
  <Data name="href"><value>https://www.kleinanzeigen.de/s-anzeige/regentonne/2446107556-87-6537</value></Data></ExtendedData>
  <Point><coordinates>11.9077748084705,48.53154385</coordinates></Point></Placemark>
<Placemark>
<ExtendedData>
  <Data name="title"><value>2 Regentonnen zu je 60 €</value></Data>
  <Data name="location"><value>85354 Freising</value></Data>
  <Data name="price"><value>60 €</value></Data>
  <Data name="href"><value>https://www.kleinanzeigen.de/s-anzeige/2-regentonnen-zu-je-60-/2444084489-87-6265</value></Data></ExtendedData>
  <Point><coordinates>11.6589014,48.3893996</coordinates></Point></Placemark>
<Placemark>
<ExtendedData>
  <Data name="title"><value>Regentonne, Wassertonne, Futtertonne</value></Data>
  <Data name="location"><value>86932 Pürgen</value></Data>
  <Data name="price"><value>10 €</value></Data>
  <Data name="href"><value>https://www.kleinanzeigen.de/s-anzeige/regentonne-wassertonne-futtertonne/2443859597-87-20348</value></Data></ExtendedData>
  <Point><coordinates>10.9157995,48.0290056</coordinates></Point></Placemark>
<Placemark>
<ExtendedData>
  <Data name="title"><value>Regentonne Abfalltonne Tonne mit Deckel neuw.</value></Data>
  <Data name="location"><value>85646 Anzing</value></Data>
  <Data name="price"><value>10 €</value></Data>
  <Data name="href"><value>https://www.kleinanzeigen.de/s-anzeige/regentonne-abfalltonne-tonne-mit-deckel-neuw-/2443268115-87-18212</value></Data></ExtendedData>
  <Point><coordinates>11.8561013,48.1616127</coordinates></Point></Placemark>
<Placemark>
<ExtendedData>
  <Data name="title"><value>Ich suche eine günstige Regentonne!!</value></Data>
  <Data name="location"><value>86415 Mering</value></Data>
  <Data name="price"><value>10 € VB</value></Data>
  <Data name="href"><value>https://www.kleinanzeigen.de/s-anzeige/ich-suche-eine-guenstige-regentonne-/2438734478-87-7040</value></Data></ExtendedData>
  <Point><coordinates>10.9883798,48.2625654</coordinates></Point></Placemark>
<Placemark>
<ExtendedData>
  <Data name="title"><value>Weinfass Eichenfass Wasserfass Regenfass Regentonne Wassertonne</value></Data>
  <Data name="location"><value>83533 Edling</value></Data>
  <Data name="price"><value>200 €</value></Data>
  <Data name="href"><value>https://www.kleinanzeigen.de/s-anzeige/weinfass-eichenfass-wasserfass-regenfass-regentonne-wassertonne/2438587252-87-6058</value></Data></ExtendedData>
  <Point><coordinates>12.1589951,48.0575364</coordinates></Point></Placemark>
<Placemark>
<ExtendedData>
  <Data name="title"><value>Regentonne</value></Data>
  <Data name="location"><value>86156 Augsburg</value></Data>
  <Data name="price"><value>8 € VB</value></Data>
  <Data name="href"><value>https://www.kleinanzeigen.de/s-anzeige/regentonne/2435276845-87-7529</value></Data></ExtendedData>
  <Point><coordinates>10.856487446342413,48.385088631614785</coordinates></Point></Placemark>
<Placemark>
<ExtendedData>
  <Data name="title"><value>Speidel Regensäule 2000Ltr.,Regentonne,Regenwassertank ,anthrazit</value></Data>
  <Data name="location"><value>84174 Eching</value></Data>
  <Data name="price"><value>560 €</value></Data>
  <Data name="href"><value>https://www.kleinanzeigen.de/s-anzeige/speidel-regensaeule-2000ltr-regentonne-regenwassertank-anthrazit/2425582356-87-6404</value></Data></ExtendedData>
  <Point><coordinates>12.0352564,48.4985919</coordinates></Point></Placemark>
<Placemark>
<ExtendedData>
  <Data name="title"><value>Speidel Regensäule 2000Ltr. , Regentonne, Regenwassertank ,grün</value></Data>
  <Data name="location"><value>84174 Eching</value></Data>
  <Data name="price"><value>560 €</value></Data>
  <Data name="href"><value>https://www.kleinanzeigen.de/s-anzeige/speidel-regensaeule-2000ltr-regentonne-regenwassertank-gruen/2425580974-87-6404</value></Data></ExtendedData>
  <Point><coordinates>12.0352564,48.4985919</coordinates></Point></Placemark>
<Placemark>
<ExtendedData>
  <Data name="title"><value>Speidel Regensäule 2000Ltr. , Regentonne, Regenwassertank ,grau</value></Data>
  <Data name="location"><value>84174 Eching</value></Data>
  <Data name="price"><value>560 €</value></Data>
  <Data name="href"><value>https://www.kleinanzeigen.de/s-anzeige/speidel-regensaeule-2000ltr-regentonne-regenwassertank-grau/2425579482-87-6404</value></Data></ExtendedData>
  <Point><coordinates>12.0352564,48.4985919</coordinates></Point></Placemark>
<Placemark>
<ExtendedData>
  <Data name="title"><value>Regentonne</value></Data>
  <Data name="location"><value>86154 Augsburg</value></Data>
  <Data name="price"><value>30 € VB</value></Data>
  <Data name="href"><value>https://www.kleinanzeigen.de/s-anzeige/regentonne/2419380124-87-7528</value></Data></ExtendedData>
  <Point><coordinates>10.87916624123967,48.3877542514876</coordinates></Point></Placemark>
<Placemark>
<ExtendedData>
  <Data name="title"><value>Fass Metallfass Regentonne Tonne</value></Data>
  <Data name="location"><value>83059 Kolbermoor</value></Data>
  <Data name="price"><value>15 €</value></Data>
  <Data name="href"><value>https://www.kleinanzeigen.de/s-anzeige/fass-metallfass-regentonne-tonne/2403637634-87-6257</value></Data></ExtendedData>
  <Point><coordinates>12.0643394,47.8519749</coordinates></Point></Placemark>
<Placemark>
<ExtendedData>
  <Data name="title"><value>Neuer Sockel für 240 Liter Regenfass / Regentonne</value></Data>
  <Data name="location"><value>81673 Berg-​am-​Laim</value></Data>
  <Data name="price"><value>40 €</value></Data>
  <Data name="href"><value>https://www.kleinanzeigen.de/s-anzeige/neuer-sockel-fuer-240-liter-regenfass-regentonne/2373295145-89-6455</value></Data></ExtendedData>
  <Point><coordinates>11.633545,48.134022</coordinates></Point></Placemark>
<Placemark>
<ExtendedData>
  <Data name="title"><value>Orig. Barrique 225 Liter. Holzfass Fass, Regenfass, Regentonne</value></Data>
  <Data name="location"><value>84435 Lengdorf</value></Data>
  <Data name="price"><value>185 €</value></Data>
  <Data name="href"><value>https://www.kleinanzeigen.de/s-anzeige/orig-barrique-225-liter-holzfass-fass-regenfass-regentonne/2295703777-87-6074</value></Data></ExtendedData>
  <Point><coordinates>12.0563246,48.2693214</coordinates></Point></Placemark>
<Placemark>
<ExtendedData>
  <Data name="title"><value>Regentonne 200L, Blau</value></Data>
  <Data name="location"><value>83059 Kolbermoor</value></Data>
  <Data name="price"><value>30 €</value></Data>
  <Data name="href"><value>https://www.kleinanzeigen.de/s-anzeige/regentonne-200l-blau/2281613487-87-6257</value></Data></ExtendedData>
  <Point><coordinates>12.0643394,47.8519749</coordinates></Point></Placemark>
<Placemark>
<ExtendedData>
  <Data name="title"><value>3 Stück Behälter, Regentonne etc.mit Podest</value></Data>
  <Data name="location"><value>86947 Weil a. Lech</value></Data>
  <Data name="price"><value>115 € VB</value></Data>
  <Data name="href"><value>https://www.kleinanzeigen.de/s-anzeige/3-stueck-behaelter-regentonne-etc-mit-podest/2277775268-87-7079</value></Data></ExtendedData>
  <Point><coordinates>10.950294141418764,48.113797121281465</coordinates></Point></Placemark>
<Placemark>
<ExtendedData>
  <Data name="title"><value>Blaues Kunststofffass, Wasserfass, Regentonne, Wassertonne</value></Data>
  <Data name="location"><value>85402 Kranzberg</value></Data>
  <Data name="price"><value>25 €</value></Data>
  <Data name="href"><value>https://www.kleinanzeigen.de/s-anzeige/blaues-kunststofffass-wasserfass-regentonne-wassertonne/2205681400-87-6260</value></Data></ExtendedData>
  <Point><coordinates>11.6094324,48.4042752</coordinates></Point></Placemark>
<Placemark>
<ExtendedData>
  <Data name="title"><value>Regentonnen Deckel</value></Data>
  <Data name="location"><value>86971 Peiting</value></Data>
  <Data name="price"><value>10 €</value></Data>
  <Data name="href"><value>https://www.kleinanzeigen.de/s-anzeige/regentonnen-deckel/1787232425-87-5561</value></Data></ExtendedData>
  <Point><coordinates>10.93109457254147,47.79937141442535</coordinates></Point></Placemark>
<Placemark>
<ExtendedData>
  <Data name="title"><value>Saugrohr für Gartenschlauch und Regentonne.</value></Data>
  <Data name="location"><value>86899 Landsberg</value></Data>
  <Data name="price"><value>3 €</value></Data>
  <Data name="href"><value>https://www.kleinanzeigen.de/s-anzeige/saugrohr-fuer-gartenschlauch-und-regentonne-/1368892635-89-7091</value></Data></ExtendedData>
  <Point><coordinates>10.8846552,48.0317186</coordinates></Point></Placemark>
<Placemark>
<ExtendedData>
  <Data name="title"><value>200 L Liter Metallfass  Stehtisch Grill Gewicht Regentonne smoker</value></Data>
  <Data name="location"><value>82436 Eglfing</value></Data>
  <Data name="price"><value>25 €</value></Data>
  <Data name="href"><value>https://www.kleinanzeigen.de/s-anzeige/200-l-liter-metallfass-stehtisch-grill-gewicht-regentonne-smoker/1304616418-276-5550</value></Data></ExtendedData>
  <Point><coordinates>11.1732173,47.74389458333333</coordinates></Point></Placemark>
<Placemark>
<ExtendedData>
  <Data name="title"><value>Deckel für Regentonne 210ltr</value></Data>
  <Data name="location"><value>83700 Rottach-​Egern</value></Data>
  <Data name="price"><value>5 €</value></Data>
  <Data name="href"><value>https://www.kleinanzeigen.de/s-anzeige/deckel-fuer-regentonne-210ltr/1137888838-89-5884</value></Data></ExtendedData>
  <Point><coordinates>11.7764565,47.675153</coordinates></Point></Placemark></Document></kml>